STARLINK-4563           
1 53561U 22101AL  23278.75326311  .00001452  00000+0  10929-3 0  9991
2 53561  53.2164  81.2443 0001429  78.9253 281.1900 15.08844609 62560
STARLINK-4565           
1 53562U 22101AM  23279.46076750 -.00001405  00000+0 -70210-4 0  9990
2 53562  53.2168  68.2102 0001323  88.5287 271.5857 15.08835931 62808
STARLINK-4561           
1 53563U 22101AN  23278.73949191  .00003836  00000+0  25896-3 0  9995
2 53563  53.2172  71.5252 0001496  81.2445 278.8717 15.08842074 62692
STARLINK-4577           
1 53564U 22101AP  23278.65851639  .00000737  00000+0  64383-4 0  9998
2 53564  53.2174  71.7333 0001542  81.1449 278.9718 15.08836573 62680
STARLINK-4575           
1 53565U 22101AQ  23278.66685758  .00011137  00000+0  71772-3 0  9992
2 53565  53.2168  71.7858 0001564  84.3878 275.7292 15.08787279 63345
STARLINK-4576           
1 53566U 22101AR  23279.44603143 -.00001803  00000+0 -95282-4 0  9992
2 53566  53.2176  68.1181 0001203  82.6972 277.4157 15.08828593 62804
STARLINK-4585           
1 53567U 22101AS  23279.39084713 -.00000792  00000+0 -31653-4 0  9991
2 53567  53.2174  68.4834 0001291  90.6191 269.4949 15.08833927 62795
STARLINK-4583           
1 53568U 22101AT  23278.70633174  .00000614  00000+0  56639-4 0  9999
2 53568  53.2180  71.3218 0001483  92.0591 268.0571 15.08839940 63388
STARLINK-4582           
1 53569U 22101AU  23279.44971018  .00007566  00000+0  49309-3 0  9992
2 53569  53.2178  68.1405 0001301  87.4629 272.6512 15.08830708 62802
STARLINK-4550           
1 53570U 22101AV  23279.43866157 -.00001468  00000+0 -74178-4 0  9990
2 53570  53.2159  68.0714 0001366  84.3573 275.7575 15.08829818 62803
STARLINK-4584           
1 53571U 22101AW  23279.44234573 -.00000230  00000+0  36372-5 0  9993
2 53571  53.2184  68.0917 0001365  82.9902 277.1245 15.08833148 62807
STARLINK-4555           
1 53572U 22101AX  23279.41654877 -.00000336  00000+0 -30276-5 0  9999
2 53572  53.2160  67.9400 0001336  82.4249 277.6895 15.08832889 62801
STARLINK-4547           
1 53573U 22101AY  23279.43128918 -.00001330  00000+0 -65509-4 0  9995
2 53573  53.2175  68.0269 0001539  97.0953 263.0214 15.08837196 62802
STARLINK-4559           
1 53574U 22101AZ  23279.42023322 -.00000056  00000+0  14573-4 0  9996
2 53574  53.2179  67.9640 0001725  90.5895 269.5294 15.08837850 62804
STARLINK-4551           
1 53575U 22101BA  23279.42760412  .00000111  00000+0  25040-4 0  9997
2 53575  53.2174  68.0042 0001443  77.7390 282.3763 15.08838732 62806
STARLINK-4581           
1 53576U 22101BB  23278.69992016  .00000568  00000+0  53756-4 0  9994
2 53576  53.2180  71.2823 0001683  95.6076 264.5108 15.08839999 63513
STARLINK-4553           
1 53577U 22101BC  23278.89399168  .00004319  00000+0  28925-3 0  9993
2 53577  53.2163  70.3625 0001786  92.9633 267.1564 15.08849118 62729
STARLINK-4556           
1 53578U 22101BD  23278.68422094  .00000038  00000+0  20491-4 0  9991
2 53578  53.2173  71.1885 0001245  83.3346 276.7788 15.08837917 62697
STARLINK-4580           
1 53579U 22101BE  23278.74677868  .00000616  00000+0  56818-4 0  9994
2 53579  53.2187  70.8684 0001636  88.5711 271.5469 15.08840055 62701
STARLINK-4691           
1 53588U 22104A   23279.34025671  .00002469  00000+0  17314-3 0  9998
2 53588  53.2141 258.8564 0001396  91.4315 268.6837 15.08845541 61263
STARLINK-4673           
1 53589U 22104B   23279.38807185  .00008022  00000+0  52135-3 0  9992
2 53589  53.2160 258.4461 0001287  97.3073 262.8066 15.08851831 61272
STARLINK-4689           
1 53590U 22104C   23279.33657399  .00001959  00000+0  14113-3 0  9995
2 53590  53.2154 258.8349 0001361  93.3680 266.7468 15.08843575 61263
STARLINK-4674           
1 53591U 22104D   23279.33289015  .00012417  00000+0  79683-3 0  9996
2 53591  53.2162 258.8101 0001811  86.9300 273.1900 15.08843294 61267
STARLINK-4672           
1 53592U 22104E   23279.39640278  .00001943  00000+0  14010-3 0  9990
2 53592  53.2153 258.4973 0001553  85.6922 274.4248 15.08843221 61270
STARLINK-4671           
1 53593U 22104F   23279.32551610  .00002298  00000+0  16241-3 0  9997
2 53593  53.2154 258.7669 0001414  99.2145 260.9007 15.08846825 61266
STARLINK-4681           
1 53594U 22104G   23279.11574495  .00003934  00000+0  26509-3 0  9997
2 53594  53.2185 259.5920 0001550  94.9490 265.1679 15.08849143 61231
STARLINK-4684           
1 53595U 22104H   23279.31814759  .00002834  00000+0  19605-3 0  9997
2 53595  53.2166 258.7216 0001629 100.0980 260.0196 15.08847854 61673
STARLINK-4668           
1 53596U 22104J   23279.10837552  .00002933  00000+0  20227-3 0  9993
2 53596  53.2148 259.5387 0001674 115.1489 244.9677 15.08843935 61236
STARLINK-4682           
1 53597U 22104K   23278.64838248  .00000935  00000+0  76842-4 0  9990
2 53597  53.2171 261.6436 0002083  87.5649 272.5581 15.08839852 61859
STARLINK-4676           
1 53598U 22104L   23279.12407777  .00001039  00000+0  83393-4 0  9999
2 53598  53.2190 259.6378 0001868 100.7910 259.3293 15.08836848 61239
STARLINK-4677           
1 53600U 22104N   23279.35859349  .00004913  00000+0  32647-3 0  9993
2 53600  53.2156 258.2602 0001534 111.9196 248.1959 15.08853382 61686
STARLINK-4675           
1 53601U 22104P   23279.10469212  .00001350  00000+0  10291-3 0  9996
2 53601  53.2157 259.5242 0001515  98.4617 261.6547 15.08840078 61230
STARLINK-4648           
1 53602U 22104Q   23279.11068408  .00000843  00000+0  71092-4 0  9993
2 53602  53.2182 254.5830 0001654  93.5191 266.5990 15.08834734 61300
STARLINK-4692           
1 53603U 22104R   23279.13279331  .00001048  00000+0  83965-4 0  9995
2 53603  53.2162 254.7151 0001576  87.5948 272.5225 15.08837595 61309
STARLINK-4690           
1 53604U 22104S   23279.36826956  .00003889  00000+0  26227-3 0  9994
2 53604  53.2170 253.3410 0001433 101.2115 258.9039 15.08844591 61343
STARLINK-4693           
1 53605U 22104T   23279.09732140  .00002564  00000+0  17910-3 0  9994
2 53605  53.2147 259.4752 0001611 113.4499 246.6662 15.08842672 61234
STARLINK-4590           
1 53606U 22104U   23278.66404470  .00002846  00000+0  19681-3 0  9999
2 53606  53.2159 251.7553 0001846  90.8637 269.2567 15.08841320 61878
STARLINK-4591           
1 53607U 22104V   23279.12173397  .00001474  00000+0  11067-3 0  9999
2 53607  53.2153 254.6421 0001652  89.1420 270.9761 15.08844967 61308
STARLINK-4647           
1 53608U 22104W   23279.33380829  .00006112  00000+0  40158-3 0  9990
2 53608  53.2161 248.8260 0001503 100.0015 260.1146 15.08854864 61408
STARLINK-4660           
1 53609U 22104X   23279.35352775  .00003237  00000+0  22132-3 0  9999
2 53609  53.2166 253.2462 0001392 103.3827 256.7320 15.08848459 61342
STARLINK-4610           
1 53610U 22104Y   23279.32739639  .00006742  00000+0  44111-3 0  9991
2 53610  53.2152 248.7876 0001485 100.6211 259.4949 15.08852902 61409
STARLINK-4650           
1 53611U 22104Z   23279.07253560  .00002872  00000+0  19845-3 0  9994
2 53611  53.2160 250.0397 0001648 100.8610 259.2567 15.08847060 61367
STARLINK-4658           
1 53612U 22104AA  23278.66035647  .00001890  00000+0  13678-3 0  9990
2 53612  53.2160 251.7336 0001136  81.8253 278.2868 15.08845130 61879
STARLINK-4655           
1 53613U 22104AB  23279.13140615  .00001639  00000+0  12101-3 0  9997
2 53613  53.2170 249.6999 0001556  87.8472 272.2699 15.08843204 61378
STARLINK-4605           
1 53616U 22104AE  23279.12125296  .00001929  00000+0  13924-3 0  9993
2 53616  53.2161 239.4619 0001479 104.6739 255.4417 15.08839817 61517
STARLINK-4601           
1 53617U 22104AF  23278.65667267  .00002090  00000+0  14935-3 0  9993
2 53617  53.2157 251.7091 0001700  91.6811 268.4376 15.08845163 61875
STARLINK-4604           
1 53618U 22104AG  23278.64561533  .00001684  00000+0  12388-3 0  9990
2 53618  53.2152 251.6406 0001370  86.9641 273.1508 15.08845138 61299
STARLINK-4609           
1 53619U 22104AH  23278.65298891  .00001687  00000+0  12409-3 0  9993
2 53619  53.2158 251.6862 0001934  86.8628 273.2586 15.08843797 61872
STARLINK-4615           
1 53620U 22104AJ  23279.36688220  .00003356  00000+0  22884-3 0  9996
2 53620  53.2171 248.3260 0001426  88.4878 271.6278 15.08844279 61411
STARLINK-4608           
1 53621U 22104AK  23279.24546057  .00004107  00000+0  27587-3 0  9995
2 53621  53.2162 248.9902 0001720  88.4413 271.6776 15.08852466 61390
STARLINK-4568           
1 53622U 22104AL  23279.07982132  .00002014  00000+0  14456-3 0  9991
2 53622  53.2153 249.3798 0001532 114.6089 245.5063 15.08841835 61376
STARLINK-4573           
1 53623U 22104AM  23278.64193438  .00001365  00000+0  10383-3 0  9990
2 53623  53.2163 251.6203 0002102  86.1626 273.9606 15.08842724 61982
STARLINK-4596           
1 53624U 22104AN  23279.09455261  .00001317  00000+0  10084-3 0  9991
2 53624  53.2182 249.4723 0001756  96.2285 263.8907 15.08847940 61373
STARLINK-4603           
1 53625U 22104AP  23279.29696251  .00003546  00000+0  24074-3 0  9990
2 53625  53.2168 248.6012 0001607  92.5302 267.5874 15.08848150 61406
STARLINK-4554           
1 53626U 22104AQ  23278.61982348  .00000525  00000+0  51052-4 0  9992
2 53626  53.2150 251.4816 0001491  92.8937 267.2226 15.08842460 61990
STARLINK-4595           
1 53627U 22104AR  23279.09087450 -.00000342  00000+0 -33982-5 0  9998
2 53627  53.2188 249.4516 0001853 115.8760 244.2423 15.08841340 61370
STARLINK-4600           
1 53628U 22104AS  23279.07613377  .00002832  00000+0  19594-3 0  9995
2 53628  53.2142 249.3529 0001711 123.3084 236.8072 15.08846315 61374
STARLINK-4602           
1 53629U 22104AT  23279.08718991  .00004718  00000+0  31417-3 0  9998
2 53629  53.2161 249.4232 0001581  86.3224 273.7949 15.08856248 61376
STARLINK-4598           
1 53630U 22104AU  23279.32094781  .00003059  00000+0  21014-3 0  9990
2 53630  53.2161 238.7673 0001198  94.2470 265.8659 15.08853644 61549
